{
  "type": "FeatureCollection",
  "features": [
    {
      "type": "Feature",
      "properties": {
        "norad_id": 66520,
        "name": "STARLINK-35952",
        "group": "last-30-days",
        "lat": -21.294123484316987,
        "lon": 87.22983231666431,
        "alt_km": 346.0247345689113,
        "timestamp": "2025-12-02T23:34:14.291277+00:00",
        "meta_object_name": "STARLINK-35952",
        "meta_object_id": "2025-265E",
        "meta_epoch": "2025-12-02T12:00:05.998752",
        "meta_mean_motion": 15.74972071,
        "meta_eccentricity": 0.0001381,
        "meta_inclination": 42.999,
        "meta_ra_of_asc_node": 114.8818,
        "meta_arg_of_pericenter": 268.6658,
        "meta_mean_anomaly": 202.6757,
        "meta_ephemeris_type": 0,
        "meta_classification_type": "U",
        "meta_norad_cat_id": 66520,
        "meta_element_set_no": 999,
        "meta_rev_at_epoch": 334,
        "meta_bstar": 0.00053077,
        "meta_mean_motion_dot": 0.00081604,
        "meta_mean_motion_ddot": 0,
        "tle_line1": "1 66520U 25265E   25336.50006943  .00081604  00000+0  53077-3 0  9998",
        "tle_line2": "2 66520  42.9990 114.8818 0001381 268.6658 202.6757 15.74972071  3341"
      },
      "geometry": {
        "type": "Point",
        "coordinates": [
          87.22983231666431,
          -21.294123484316987
        ]
      }
    },
    {
      "type": "Feature",
      "properties": {
        "norad_id": 66521,
        "name": "STARLINK-35915",
        "group": "last-30-days",
        "lat": -20.103757915172608,
        "lon": 88.82292004343101,
        "alt_km": 346.12827453441787,
        "timestamp": "2025-12-02T23:34:14.291286+00:00",
        "meta_object_name": "STARLINK-35915",
        "meta_object_id": "2025-265F",
        "meta_epoch": "2025-12-02T12:00:05.998752",
        "meta_mean_motion": 15.74966701,
        "meta_eccentricity": 0.0001446,
        "meta_inclination": 42.9989,
        "meta_ra_of_asc_node": 114.8776,
        "meta_arg_of_pericenter": 263.0246,
        "meta_mean_anomaly": 210.2682,
        "meta_ephemeris_type": 0,
        "meta_classification_type": "U",
        "meta_norad_cat_id": 66521,
        "meta_element_set_no": 999,
        "meta_rev_at_epoch": 334,
        "meta_bstar": 0.00028097,
        "meta_mean_motion_dot": 0.00042764,
        "meta_mean_motion_ddot": 0,
        "tle_line1": "1 66521U 25265F   25336.50006943  .00042764  00000+0  28097-3 0  9997",
        "tle_line2": "2 66521  42.9989 114.8776 0001446 263.0246 210.2682 15.74966701  3342"
      },
      "geometry": {
        "type": "Point",
        "coordinates": [
          88.82292004343101,
          -20.103757915172608
        ]
      }
    },
    {
      "type": "Feature",
      "properties": {
        "norad_id": 66522,
        "name": "STARLINK-35946",
        "group": "last-30-days",
        "lat": -18.895101736179488,
        "lon": 90.39657131410328,
        "alt_km": 346.0180687540478,
        "timestamp": "2025-12-02T23:34:14.291298+00:00",
        "meta_object_name": "STARLINK-35946",
        "meta_object_id": "2025-265G",
        "meta_epoch": "2025-12-02T12:00:05.998752",
        "meta_mean_motion": 15.75074909,
        "meta_eccentricity": 0.0001512,
        "meta_inclination": 42.9989,
        "meta_ra_of_asc_node": 114.8731,
        "meta_arg_of_pericenter": 265.907,
        "meta_mean_anomaly": 209.2187,
        "meta_ephemeris_type": 0,
        "meta_classification_type": "U",
        "meta_norad_cat_id": 66522,
        "meta_element_set_no": 999,
        "meta_rev_at_epoch": 334,
        "meta_bstar": -0.00052741,
        "meta_mean_motion_dot": -0.00080846,
        "meta_mean_motion_ddot": 0,
        "tle_line1": "1 66522U 25265G   25336.50006943 -.00080846  00000+0 -52741-3 0  9996",
        "tle_line2": "2 66522  42.9989 114.8731 0001512 265.9070 209.2187 15.75074909  3343"
      },
      "geometry": {
        "type": "Point",
        "coordinates": [
          90.39657131410328,
          -18.895101736179488
        ]
      }
    },
    {
      "type": "Feature",
      "properties": {
        "norad_id": 66523,
        "name": "STARLINK-35969",
        "group": "last-30-days",
        "lat": -17.66531138351642,
        "lon": 91.9576738190032,
        "alt_km": 345.706569363515,
        "timestamp": "2025-12-02T23:34:14.291308+00:00",
        "meta_object_name": "STARLINK-35969",
        "meta_object_id": "2025-265H",
        "meta_epoch": "2025-12-02T12:00:05.998752",
        "meta_mean_motion": 15.75059406,
        "meta_eccentricity": 0.0001463,
        "meta_inclination": 42.9991,
        "meta_ra_of_asc_node": 114.8684,
        "meta_arg_of_pericenter": 276.938,
        "meta_mean_anomaly": 200.1084,
        "meta_ephemeris_type": 0,
        "meta_classification_type": "U",
        "meta_norad_cat_id": 66523,
        "meta_element_set_no": 999,
        "meta_rev_at_epoch": 334,
        "meta_bstar": -0.00022396,
        "meta_mean_motion_dot": -0.00034768,
        "meta_mean_motion_ddot": 0,
        "tle_line1": "1 66523U 25265H   25336.50006943 -.00034768  00000+0 -22396-3 0  9992",
        "tle_line2": "2 66523  42.9991 114.8684 0001463 276.9380 200.1084 15.75059406  3346"
      },
      "geometry": {
        "type": "Point",
        "coordinates": [
          91.9576738190032,
          -17.66531138351642
        ]
      }
    },
    {
      "type": "Feature",
      "properties": {
        "norad_id": 66524,
        "name": "STARLINK-35687",
        "group": "last-30-days",
        "lat": -16.433113438751196,
        "lon": 93.48462817642732,
        "alt_km": 345.61446998885003,
        "timestamp": "2025-12-02T23:34:14.291318+00:00",
        "meta_object_name": "STARLINK-35687",
        "meta_object_id": "2025-265J",
        "meta_epoch": "2025-12-02T12:00:05.998752",
        "meta_mean_motion": 15.75052847,
        "meta_eccentricity": 0.0001601,
        "meta_inclination": 42.9991,
        "meta_ra_of_asc_node": 114.8631,
        "meta_arg_of_pericenter": 272.55,
        "meta_mean_anomaly": 206.4083,
        "meta_ephemeris_type": 0,
        "meta_classification_type": "U",
        "meta_norad_cat_id": 66524,
        "meta_element_set_no": 999,
        "meta_rev_at_epoch": 334,
        "meta_bstar": -0.000127,
        "meta_mean_motion_dot": -0.00019951,
        "meta_mean_motion_ddot": 0,
        "tle_line1": "1 66524U 25265J   25336.50006943 -.00019951  00000+0 -12700-3 0  9998",
        "tle_line2": "2 66524  42.9991 114.8631 0001601 272.5500 206.4083 15.75052847  3349"
      },
      "geometry": {
        "type": "Point",
        "coordinates": [
          93.48462817642732,
          -16.433113438751196
        ]
      }
    },
    {
      "type": "Feature",
      "properties": {
        "norad_id": 66525,
        "name": "STARLINK-35975",
        "group": "last-30-days",
        "lat": -15.190426490230523,
        "lon": 94.99260623395074,
        "alt_km": 345.7360277702228,
        "timestamp": "2025-12-02T23:34:14.291330+00:00",
        "meta_object_name": "STARLINK-35975",
        "meta_object_id": "2025-265K",
        "meta_epoch": "2025-12-02T12:00:05.998752",
        "meta_mean_motion": 15.75043787,
        "meta_eccentricity": 0.0001456,
        "meta_inclination": 42.9991,
        "meta_ra_of_asc_node": 114.8588,
        "meta_arg_of_pericenter": 261.5507,
        "meta_mean_anomaly": 219.3266,
        "meta_ephemeris_type": 0,
        "meta_classification_type": "U",
        "meta_norad_cat_id": 66525,
        "meta_element_set_no": 999,
        "meta_rev_at_epoch": 334,
        "meta_bstar": -4.0119e-05,
        "meta_mean_motion_dot": -6.636e-05,
        "meta_mean_motion_ddot": 0,
        "tle_line1": "1 66525U 25265K   25336.50006943 -.00006636  00000+0 -40119-4 0  9991",
        "tle_line2": "2 66525  42.9991 114.8588 0001456 261.5507 219.3266 15.75043787  3343"
      },
      "geometry": {
        "type": "Point",
        "coordinates": [
          94.99260623395074,
          -15.190426490230523
        ]
      }
    },
    {
      "type": "Feature",
      "properties": {
        "norad_id": 66526,
        "name": "STARLINK-35932",
        "group": "last-30-days",
        "lat": -13.930616302837484,
        "lon": 96.49077053689203,
        "alt_km": 345.4666791033287,
        "timestamp": "2025-12-02T23:34:14.291342+00:00",
        "meta_object_name": "STARLINK-35932",
        "meta_object_id": "2025-265L",
        "meta_epoch": "2025-12-02T12:00:05.998752",
        "meta_mean_motion": 15.75045376,
        "meta_eccentricity": 0.0001606,
        "meta_inclination": 42.9992,
        "meta_ra_of_asc_node": 114.854,
        "meta_arg_of_pericenter": 267.726,
        "meta_mean_anomaly": 215.062,
        "meta_ephemeris_type": 0,
        "meta_classification_type": "U",
        "meta_norad_cat_id": 66526,
        "meta_element_set_no": 999,
        "meta_rev_at_epoch": 324,
        "meta_bstar": 4.3026e-05,
        "meta_mean_motion_dot": 6.138e-05,
        "meta_mean_motion_ddot": 0,
        "tle_line1": "1 66526U 25265L   25336.50006943  .00006138  00000+0  43026-4 0  9997",
        "tle_line2": "2 66526  42.9992 114.8540 0001606 267.7260 215.0620 15.75045376  3246"
      },
      "geometry": {
        "type": "Point",
        "coordinates": [
          96.49077053689203,
          -13.930616302837484
        ]
      }
    }
  ]
}